{
  "type": "FeatureCollection",
  "features": [
    {
      "type": "Feature",
      "properties": {
        "norad_id": 35065,
        "name": "COSMOS 2251 DEB",
        "group": "cosmos-2251-debris",
        "lat": 10.010587385705767,
        "lon": 20.39180148466174,
        "alt_km": 754.0213523412503,
        "timestamp": "2025-12-07T22:37:43.478026+00:00",
        "meta_object_name": "COSMOS 2251 DEB",
        "meta_object_id": "1993-036AHU",
        "meta_epoch": "2025-12-06T22:35:45.269952",
        "meta_mean_motion": 14.4570153,
        "meta_eccentricity": 0.00196371,
        "meta_inclination": 74.0198,
        "meta_ra_of_asc_node": 205.1597,
        "meta_arg_of_pericenter": 331.0404,
        "meta_mean_anomaly": 28.9662,
        "meta_ephemeris_type": 0,
        "meta_classification_type": "U",
        "meta_norad_cat_id": 35065,
        "meta_element_set_no": 999,
        "meta_rev_at_epoch": 68267,
        "meta_bstar": 0.00070588352,
        "meta_mean_motion_dot": 2.479e-05,
        "meta_mean_motion_ddot": 0,
        "tle_line1": "1 35065U 93036AHU 25340.94149618  .00002479  00000+0  70588-3 0  9998",
        "tle_line2": "2 35065  74.0198 205.1597 0019637 331.0404  28.9662 14.45701530682672"
      },
      "geometry": {
        "type": "Point",
        "coordinates": [
          20.39180148466174,
          10.010587385705767
        ]
      }
    },
    {
      "type": "Feature",
      "properties": {
        "norad_id": 35071,
        "name": "COSMOS 2251 DEB",
        "group": "cosmos-2251-debris",
        "lat": 60.83159252964846,
        "lon": -27.79130861864502,
        "alt_km": 510.66916878875963,
        "timestamp": "2025-12-07T22:37:43.478036+00:00",
        "meta_object_name": "COSMOS 2251 DEB",
        "meta_object_id": "1993-036AJA",
        "meta_epoch": "2025-12-06T06:11:48.969024",
        "meta_mean_motion": 15.03269957,
        "meta_eccentricity": 0.00683754,
        "meta_inclination": 73.9314,
        "meta_ra_of_asc_node": 186.7627,
        "meta_arg_of_pericenter": 85.1943,
        "meta_mean_anomaly": 275.7048,
        "meta_ephemeris_type": 0,
        "meta_classification_type": "U",
        "meta_norad_cat_id": 35071,
        "meta_element_set_no": 999,
        "meta_rev_at_epoch": 67439,
        "meta_bstar": 0.0011992827,
        "meta_mean_motion_dot": 0.00017109,
        "meta_mean_motion_ddot": 0,
        "tle_line1": "1 35071U 93036AJA 25340.25820566  .00017109  00000+0  11993-2 0  9997",
        "tle_line2": "2 35071  73.9314 186.7627 0068375  85.1943 275.7048 15.03269957674390"
      },
      "geometry": {
        "type": "Point",
        "coordinates": [
          -27.79130861864502,
          60.83159252964846
        ]
      }
    },
    {
      "type": "Feature",
      "properties": {
        "norad_id": 35073,
        "name": "COSMOS 2251 DEB",
        "group": "cosmos-2251-debris",
        "lat": -73.63493914620686,
        "lon": -97.35617973557723,
        "alt_km": 580.290737522897,
        "timestamp": "2025-12-07T22:37:43.478046+00:00",
        "meta_object_name": "COSMOS 2251 DEB",
        "meta_object_id": "1993-036AJC",
        "meta_epoch": "2025-12-06T06:59:58.933248",
        "meta_mean_motion": 14.99991639,
        "meta_eccentricity": 0.00102924,
        "meta_inclination": 74.0009,
        "meta_ra_of_asc_node": 343.7168,
        "meta_arg_of_pericenter": 84.8418,
        "meta_mean_anomaly": 275.3943,
        "meta_ephemeris_type": 0,
        "meta_classification_type": "U",
        "meta_norad_cat_id": 35073,
        "meta_element_set_no": 999,
        "meta_rev_at_epoch": 67382,
        "meta_bstar": 0.0044204403,
        "meta_mean_motion_dot": 0.00055435,
        "meta_mean_motion_ddot": 0,
        "tle_line1": "1 35073U 93036AJC 25340.29165432  .00055435  00000+0  44204-2 0  9992",
        "tle_line2": "2 35073  74.0009 343.7168 0010292  84.8418 275.3943 14.99991639673828"
      },
      "geometry": {
        "type": "Point",
        "coordinates": [
          -97.35617973557723,
          -73.63493914620686
        ]
      }
    },
    {
      "type": "Feature",
      "properties": {
        "norad_id": 35284,
        "name": "COSMOS 2251 DEB",
        "group": "cosmos-2251-debris",
        "lat": -8.263405017773668,
        "lon": -89.12522963277853,
        "alt_km": 755.8785893934128,
        "timestamp": "2025-12-07T22:37:43.478057+00:00",
        "meta_object_name": "COSMOS 2251 DEB",
        "meta_object_id": "1993-036AJN",
        "meta_epoch": "2025-12-07T06:41:11.898816",
        "meta_mean_motion": 14.38308297,
        "meta_eccentricity": 0.00165721,
        "meta_inclination": 74.049,
        "meta_ra_of_asc_node": 274.4779,
        "meta_arg_of_pericenter": 351.9978,
        "meta_mean_anomaly": 161.4544,
        "meta_ephemeris_type": 0,
        "meta_classification_type": "U",
        "meta_norad_cat_id": 35284,
        "meta_element_set_no": 999,
        "meta_rev_at_epoch": 65447,
        "meta_bstar": 0.00033658929,
        "meta_mean_motion_dot": 1e-05,
        "meta_mean_motion_ddot": 0,
        "tle_line1": "1 35284U 93036AJN 25341.27860994  .00001000  00000+0  33659-3 0  9992",
        "tle_line2": "2 35284  74.0490 274.4779 0016572 351.9978 161.4544 14.38308297654477"
      },
      "geometry": {
        "type": "Point",
        "coordinates": [
          -89.12522963277853,
          -8.263405017773668
        ]
      }
    },
    {
      "type": "Feature",
      "properties": {
        "norad_id": 35287,
        "name": "COSMOS 2251 DEB",
        "group": "cosmos-2251-debris",
        "lat": -19.920971865136856,
        "lon": 110.90729187726308,
        "alt_km": 787.6993183256345,
        "timestamp": "2025-12-07T22:37:43.478067+00:00",
        "meta_object_name": "COSMOS 2251 DEB",
        "meta_object_id": "1993-036AJR",
        "meta_epoch": "2025-12-07T07:22:42.300192",
        "meta_mean_motion": 14.36368826,
        "meta_eccentricity": 0.00173272,
        "meta_inclination": 74.0302,
        "meta_ra_of_asc_node": 286.1176,
        "meta_arg_of_pericenter": 24.3219,
        "meta_mean_anomaly": 131.8721,
        "meta_ephemeris_type": 0,
        "meta_classification_type": "U",
        "meta_norad_cat_id": 35287,
        "meta_element_set_no": 999,
        "meta_rev_at_epoch": 86814,
        "meta_bstar": 0.00027777062,
        "meta_mean_motion_dot": 7.88e-06,
        "meta_mean_motion_ddot": 0,
        "tle_line1": "1 35287U 93036AJR 25341.30743403  .00000788  00000+0  27777-3 0  9990",
        "tle_line2": "2 35287  74.0302 286.1176 0017327  24.3219 131.8721 14.36368826868142"
      },
      "geometry": {
        "type": "Point",
        "coordinates": [
          110.90729187726308,
          -19.920971865136856
        ]
      }
    },
    {
      "type": "Feature",
      "properties": {
        "norad_id": 35288,
        "name": "COSMOS 2251 DEB",
        "group": "cosmos-2251-debris",
        "lat": -28.531753924037407,
        "lon": -146.53791905170488,
        "alt_km": 662.8196633432117,
        "timestamp": "2025-12-07T22:37:43.478078+00:00",
        "meta_object_name": "COSMOS 2251 DEB",
        "meta_object_id": "1993-036AJS",
        "meta_epoch": "2025-12-05T20:30:59.855616",
        "meta_mean_motion": 14.65344236,
        "meta_eccentricity": 0.00396154,
        "meta_inclination": 73.9509,
        "meta_ra_of_asc_node": 28.4958,
        "meta_arg_of_pericenter": 262.8912,
        "meta_mean_anomaly": 96.775,
        "meta_ephemeris_type": 0,
        "meta_classification_type": "U",
        "meta_norad_cat_id": 35288,
        "meta_element_set_no": 999,
        "meta_rev_at_epoch": 87777,
        "meta_bstar": 0.0019659658,
        "meta_mean_motion_dot": 0.00010724,
        "meta_mean_motion_ddot": 0,
        "tle_line1": "1 35288U 93036AJS 25339.85485944  .00010724  00000+0  19660-2 0  9993",
        "tle_line2": "2 35288  73.9509  28.4958 0039615 262.8912  96.7750 14.65344236877779"
      },
      "geometry": {
        "type": "Point",
        "coordinates": [
          -146.53791905170488,
          -28.531753924037407
        ]
      }
    },
    {
      "type": "Feature",
      "properties": {
        "norad_id": 35290,
        "name": "COSMOS 2251 DEB",
        "group": "cosmos-2251-debris",
        "lat": -50.1370589456533,
        "lon": -91.0045492429891,
        "alt_km": 633.5685845851276,
        "timestamp": "2025-12-07T22:37:43.478089+00:00",
        "meta_object_name": "COSMOS 2251 DEB",
        "meta_object_id": "1993-036AJU",
        "meta_epoch": "2025-12-06T16:22:51.987360",
        "meta_mean_motion": 14.8010207,
        "meta_eccentricity": 0.00029414,
        "meta_inclination": 74.0059,
        "meta_ra_of_asc_node": 71.3921,
        "meta_arg_of_pericenter": 204.4724,
        "meta_mean_anomaly": 155.6313,
        "meta_ephemeris_type": 0,
        "meta_classification_type": "U",
        "meta_norad_cat_id": 35290,
        "meta_element_set_no": 999,
        "meta_rev_at_epoch": 87868,
        "meta_bstar": 0.0036735181,
        "meta_mean_motion_dot": 0.00027947,
        "meta_mean_motion_ddot": 0,
        "tle_line1": "1 35290U 93036AJU 25340.68254615  .00027947  00000+0  36735-2 0  9995",
        "tle_line2": "2 35290  74.0059  71.3921 0002941 204.4724 155.6313 14.80102070878682"
      },
      "geometry": {
        "type": "Point",
        "coordinates": [
          -91.0045492429891,
          -50.1370589456533
        ]
      }
    }
  ]
}